ONEWEB-0018             
1 45434U 20020L   26101.07674004 -.00000427  00000+0 -12404-2 0  9999
2 45434  87.8914  34.4064 0002231  83.4656 276.6726 13.11416739293837
ONEWEB-0083             
1 45435U 20020M   26101.29631449 -.00000482  00000+0 -13964-2 0  9993
2 45435  87.8920  34.3523 0001917  77.5698 282.5645 13.11417435293902
ONEWEB-0095             
1 45436U 20020N   26101.28712312 -.00000135  00000+0 -41666-3 0  9998
2 45436  87.8923  34.3623 0001214  62.3864 297.7387 13.11415500293906
ONEWEB-0092             
1 45437U 20020P   26101.25901684  .00000581  00000+0  16047-2 0  9995
2 45437  87.8923  34.3679 0001482  80.7360 279.3935 13.11419056294018
ONEWEB-0085             
1 45438U 20020Q   26101.21916148 -.00000455  00000+0 -13202-2 0  9995
2 45438  87.8919  34.3791 0001824  79.2020 280.9313 13.11415316293893
ONEWEB-0096             
1 45439U 20020R   26101.29715962 -.00000446  00000+0 -12954-2 0  9998
2 45439  87.8927  34.3538 0001854  81.4931 278.6407 13.11416483293895
ONEWEB-0037             
1 45440U 20020S   26101.20136771  .00000176  00000+0  46014-3 0  9999
2 45440  87.8929  34.3507 0001762  78.4921 281.6405 13.11414391293919
ONEWEB-0042             
1 45441U 20020T   26101.28684504 -.00000173  00000+0 -52484-3 0  9997
2 45441  87.8921  34.3529 0001845  81.8326 278.3012 13.11414390293898
ONEWEB-0098             
1 45442U 20020U   26101.20644953 -.00000008  00000+0 -58311-4 0  9997
2 45442  87.8920  34.3795 0001885  77.0339 283.1000 13.11416645293861
ONEWEB-0055             
1 45443U 20020V   26101.26580610  .00000535  00000+0  14740-2 0  9992
2 45443  87.8920  34.3679 0001906  77.2640 282.8701 13.11415375293845
ONEWEB-0093             
1 45444U 20020W   26101.24135549  .00000048  00000+0  99531-4 0  9990
2 45444  87.8922  34.3626 0001855  91.8807 268.2534 13.11418557293904
ONEWEB-0029             
1 45445U 20020X   26101.25732689  .00000613  00000+0  16937-2 0  9995
2 45445  87.8913  34.3704 0001929  82.5593 277.5754 13.11416882293886
ONEWEB-0068             
1 45446U 20020Y   26101.24107844  .00000058  00000+0  12840-3 0  9997
2 45446  87.8923  34.3657 0001944  84.0293 276.1057 13.11418659293825
ONEWEB-0046             
1 45447U 20020Z   26101.23272877 -.00000325  00000+0 -95207-3 0  9993
2 45447  87.8925  34.3744 0001707  85.0438 275.0885 13.11417542293832
ONEWEB-0063             
1 45448U 20020AA  26101.26156221  .00000607  00000+0  16764-2 0  9992
2 45448  87.8925  34.3663 0001602  79.2890 280.8419 13.11416172293929
ONEWEB-0019             
1 45449U 20020AB  26101.30040886 -.00000464  00000+0 -13441-2 0  9999
2 45449  87.8916  34.3494 0001974  74.8244 285.3102 13.11416364293773
