[{"OBJECT_NAME":"ONEWEB-0018","OBJECT_ID":"2020-020L","EPOCH":"2026-04-11T01:50:30.339456","MEAN_MOTION":13.11416739,"ECCENTRICITY":0.0002231,"INCLINATION":87.8914,"RA_OF_ASC_NODE":34.4064,"ARG_OF_PERICENTER":83.4656,"MEAN_ANOMALY":276.6726,"EPHEMERIS_TYPE":0,"CLASSIFICATION_TYPE":"U","NORAD_CAT_ID":45434,"ELEMENT_SET_NO":999,"REV_AT_EPOCH":29383,"BSTAR":-0.0012404,"MEAN_MOTION_DOT":-4.27e-06,"MEAN_MOTION_DDOT":0.0},{"OBJECT_NAME":"ONEWEB-0083","OBJECT_ID":"2020-020M","EPOCH":"2026-04-11T07:06:41.571936","MEAN_MOTION":13.11417435,"ECCENTRICITY":0.0001917,"INCLINATION":87.892,"RA_OF_ASC_NODE":34.3523,"ARG_OF_PERICENTER":77.5698,"MEAN_ANOMALY":282.5645,"EPHEMERIS_TYPE":0,"CLASSIFICATION_TYPE":"U","NORAD_CAT_ID":45435,"ELEMENT_SET_NO":999,"REV_AT_EPOCH":29390,"BSTAR":-0.0013964,"MEAN_MOTION_DOT":-4.82e-06,"MEAN_MOTION_DDOT":0.0},{"OBJECT_NAME":"ONEWEB-0095","OBJECT_ID":"2020-020N","EPOCH":"2026-04-11T06:53:27.437568","MEAN_MOTION":13.114155,"ECCENTRICITY":0.0001214,"INCLINATION":87.8923,"RA_OF_ASC_NODE":34.3623,"ARG_OF_PERICENTER":62.3864,"MEAN_ANOMALY":297.7387,"EPHEMERIS_TYPE":0,"CLASSIFICATION_TYPE":"U","NORAD_CAT_ID":45436,"ELEMENT_SET_NO":999,"REV_AT_EPOCH":29390,"BSTAR":-0.00041665999999999996,"MEAN_MOTION_DOT":-1.35e-06,"MEAN_MOTION_DDOT":0.0},{"OBJECT_NAME":"ONEWEB-0092","OBJECT_ID":"2020-020P","EPOCH":"2026-04-11T06:12:59.054976","MEAN_MOTION":13.11419056,"ECCENTRICITY":0.0001482,"INCLINATION":87.8923,"RA_OF_ASC_NODE":34.3679,"ARG_OF_PERICENTER":80.736,"MEAN_ANOMALY":279.3935,"EPHEMERIS_TYPE":0,"CLASSIFICATION_TYPE":"U","NORAD_CAT_ID":45437,"ELEMENT_SET_NO":999,"REV_AT_EPOCH":29401,"BSTAR":0.0016047000000000001,"MEAN_MOTION_DOT":5.81e-06,"MEAN_MOTION_DDOT":0.0},{"OBJECT_NAME":"ONEWEB-0085","OBJECT_ID":"2020-020Q","EPOCH":"2026-04-11T05:15:35.551872","MEAN_MOTION":13.11415316,"ECCENTRICITY":0.0001824,"INCLINATION":87.8919,"RA_OF_ASC_NODE":34.3791,"ARG_OF_PERICENTER":79.202,"MEAN_ANOMALY":280.9313,"EPHEMERIS_TYPE":0,"CLASSIFICATION_TYPE":"U","NORAD_CAT_ID":45438,"ELEMENT_SET_NO":999,"REV_AT_EPOCH":29389,"BSTAR":-0.0013202,"MEAN_MOTION_DOT":-4.55e-06,"MEAN_MOTION_DDOT":0.0},{"OBJECT_NAME":"ONEWEB-0096","OBJECT_ID":"2020-020R","EPOCH":"2026-04-11T07:07:54.591168","MEAN_MOTION":13.11416483,"ECCENTRICITY":0.0001854,"INCLINATION":87.8927,"RA_OF_ASC_NODE":34.3538,"ARG_OF_PERICENTER":81.4931,"MEAN_ANOMALY":278.6407,"EPHEMERIS_TYPE":0,"CLASSIFICATION_TYPE":"U","NORAD_CAT_ID":45439,"ELEMENT_SET_NO":999,"REV_AT_EPOCH":29389,"BSTAR":-0.0012954,"MEAN_MOTION_DOT":-4.46e-06,"MEAN_MOTION_DDOT":0.0},{"OBJECT_NAME":"ONEWEB-0037","OBJECT_ID":"2020-020S","EPOCH":"2026-04-11T04:49:58.170144","MEAN_MOTION":13.11414391,"ECCENTRICITY":0.0001762,"INCLINATION":87.8929,"RA_OF_ASC_NODE":34.3507,"ARG_OF_PERICENTER":78.4921,"MEAN_ANOMALY":281.6405,"EPHEMERIS_TYPE":0,"CLASSIFICATION_TYPE":"U","NORAD_CAT_ID":45440,"ELEMENT_SET_NO":999,"REV_AT_EPOCH":29391,"BSTAR":0.00046014,"MEAN_MOTION_DOT":1.76e-06,"MEAN_MOTION_DDOT":0.0},{"OBJECT_NAME":"ONEWEB-0042","OBJECT_ID":"2020-020T","EPOCH":"2026-04-11T06:53:03.411456","MEAN_MOTION":13.1141439,"ECCENTRICITY":0.0001845,"INCLINATION":87.8921,"RA_OF_ASC_NODE":34.3529,"ARG_OF_PERICENTER":81.8326,"MEAN_ANOMALY":278.3012,"EPHEMERIS_TYPE":0,"CLASSIFICATION_TYPE":"U","NORAD_CAT_ID":45441,"ELEMENT_SET_NO":999,"REV_AT_EPOCH":29389,"BSTAR":-0.0005248399999999999,"MEAN_MOTION_DOT":-1.73e-06,"MEAN_MOTION_DDOT":0.0},{"OBJECT_NAME":"ONEWEB-0098","OBJECT_ID":"2020-020U","EPOCH":"2026-04-11T04:57:17.239392","MEAN_MOTION":13.11416645,"ECCENTRICITY":0.0001885,"INCLINATION":87.892,"RA_OF_ASC_NODE":34.3795,"ARG_OF_PERICENTER":77.0339,"MEAN_ANOMALY":283.1,"EPHEMERIS_TYPE":0,"CLASSIFICATION_TYPE":"U","NORAD_CAT_ID":45442,"ELEMENT_SET_NO":999,"REV_AT_EPOCH":29386,"BSTAR":-5.8311000000000005e-05,"MEAN_MOTION_DOT":-8e-08,"MEAN_MOTION_DDOT":0.0},{"OBJECT_NAME":"ONEWEB-0055","OBJECT_ID":"2020-020V","EPOCH":"2026-04-11T06:22:45.647040","MEAN_MOTION":13.11415375,"ECCENTRICITY":0.0001906,"INCLINATION":87.892,"RA_OF_ASC_NODE":34.3679,"ARG_OF_PERICENTER":77.264,"MEAN_ANOMALY":282.8701,"EPHEMERIS_TYPE":0,"CLASSIFICATION_TYPE":"U","NORAD_CAT_ID":45443,"ELEMENT_SET_NO":999,"REV_AT_EPOCH":29384,"BSTAR":0.001474,"MEAN_MOTION_DOT":5.35e-06,"MEAN_MOTION_DDOT":0.0},{"OBJECT_NAME":"ONEWEB-0093","OBJECT_ID":"2020-020W","EPOCH":"2026-04-11T05:47:33.114336","MEAN_MOTION":13.11418557,"ECCENTRICITY":0.0001855,"INCLINATION":87.8922,"RA_OF_ASC_NODE":34.3626,"ARG_OF_PERICENTER":91.8807,"MEAN_ANOMALY":268.2534,"EPHEMERIS_TYPE":0,"CLASSIFICATION_TYPE":"U","NORAD_CAT_ID":45444,"ELEMENT_SET_NO":999,"REV_AT_EPOCH":29390,"BSTAR":9.9531e-05,"MEAN_MOTION_DOT":4.8e-07,"MEAN_MOTION_DDOT":0.0},{"OBJECT_NAME":"ONEWEB-0029","OBJECT_ID":"2020-020X","EPOCH":"2026-04-11T06:10:33.043296","MEAN_MOTION":13.11416882,"ECCENTRICITY":0.0001929,"INCLINATION":87.8913,"RA_OF_ASC_NODE":34.3704,"ARG_OF_PERICENTER":82.5593,"MEAN_ANOMALY":277.5754,"EPHEMERIS_TYPE":0,"CLASSIFICATION_TYPE":"U","NORAD_CAT_ID":45445,"ELEMENT_SET_NO":999,"REV_AT_EPOCH":29388,"BSTAR":0.0016937,"MEAN_MOTION_DOT":6.13e-06,"MEAN_MOTION_DDOT":0.0},{"OBJECT_NAME":"ONEWEB-0068","OBJECT_ID":"2020-020Y","EPOCH":"2026-04-11T05:47:09.177216","MEAN_MOTION":13.11418659,"ECCENTRICITY":0.0001944,"INCLINATION":87.8923,"RA_OF_ASC_NODE":34.3657,"ARG_OF_PERICENTER":84.0293,"MEAN_ANOMALY":276.1057,"EPHEMERIS_TYPE":0,"CLASSIFICATION_TYPE":"U","NORAD_CAT_ID":45446,"ELEMENT_SET_NO":999,"REV_AT_EPOCH":29382,"BSTAR":0.00012839999999999998,"MEAN_MOTION_DOT":5.8e-07,"MEAN_MOTION_DDOT":0.0},{"OBJECT_NAME":"ONEWEB-0046","OBJECT_ID":"2020-020Z","EPOCH":"2026-04-11T05:35:07.765728","MEAN_MOTION":13.11417542,"ECCENTRICITY":0.0001707,"INCLINATION":87.8925,"RA_OF_ASC_NODE":34.3744,"ARG_OF_PERICENTER":85.0438,"MEAN_ANOMALY":275.0885,"EPHEMERIS_TYPE":0,"CLASSIFICATION_TYPE":"U","NORAD_CAT_ID":45447,"ELEMENT_SET_NO":999,"REV_AT_EPOCH":29383,"BSTAR":-0.00095207,"MEAN_MOTION_DOT":-3.25e-06,"MEAN_MOTION_DDOT":0.0},{"OBJECT_NAME":"ONEWEB-0063","OBJECT_ID":"2020-020AA","EPOCH":"2026-04-11T06:16:38.974944","MEAN_MOTION":13.11416172,"ECCENTRICITY":0.0001602,"INCLINATION":87.8925,"RA_OF_ASC_NODE":34.3663,"ARG_OF_PERICENTER":79.289,"MEAN_ANOMALY":280.8419,"EPHEMERIS_TYPE":0,"CLASSIFICATION_TYPE":"U","NORAD_CAT_ID":45448,"ELEMENT_SET_NO":999,"REV_AT_EPOCH":29392,"BSTAR":0.0016764000000000002,"MEAN_MOTION_DOT":6.07e-06,"MEAN_MOTION_DDOT":0.0},{"OBJECT_NAME":"ONEWEB-0019","OBJECT_ID":"2020-020AB","EPOCH":"2026-04-11T07:12:35.325504","MEAN_MOTION":13.11416364,"ECCENTRICITY":0.0001974,"INCLINATION":87.8916,"RA_OF_ASC_NODE":34.3494,"ARG_OF_PERICENTER":74.8244,"MEAN_ANOMALY":285.3102,"EPHEMERIS_TYPE":0,"CLASSIFICATION_TYPE":"U","NORAD_CAT_ID":45449,"ELEMENT_SET_NO":999,"REV_AT_EPOCH":29377,"BSTAR":-0.0013441,"MEAN_MOTION_DOT":-4.64e-06,"MEAN_MOTION_DDOT":0.0}]